phone,paper,spec,issue,phone,sony,claim,phone,inch,screen,screen,inch,inch,screen,phone,move,inch,screen,height,screen,x,cm,sqcm,space,iphone,sqcm,screen,space,sony,sqcm,space,estate,phone,business,email,screen,space,
perfecto,la,caja,cerrada,todo,muy,bien,
beware,phone,phone,feel,phone,demo,unit,screen,line,hand,auto,brightness,phone,complaint,party,seller,phone,batch,manufacturer,market,buy,issue,issue,fingerprint,dusty,wipe,cloth,line,phone,issue,restart,phone,line,finger,create,darker,fan,bit,phone,start,stuff,screen,color,leakage,bit,performance,camera,result,condition,noise,battery,life,design,case,speaker,louder,stuff,fingerprint,sensor,location,apps,sensor,slippery,case,engine,force,phone,call,bit,side,picture,camera,sony,sw,google,stuff,background,battery,user,experience,battery,care,option,phone,list,technology,life,time,burn,problem,battery,life,fingerprint,sensor,side,display,fp,sensor,fp,sensor,sw.,option,camera,image,glass,wireless,charge,glass,magnet,surface,
sony,believer,phone,business,sim,version,simcard,business,phone,europe,absolute,issue,reception,fingerprint,reader,battery,life,function,
phone,apple,android,android,year,feature,price,point,apple,phone,cost,lg,state,carrier,work,phone,t,switch,carrier,phone,verizon,
phone,finger,camera,print,
wayyyyyy,samsung,s8,
je,besoin,téléphone,
awesome,battery,life,display,camera,love,
phone,size,sensor,position,phone,lighter,battery,bit,
month,screen,
phone,work,perfect,ecuador,
phone,condition,price,
sin,duda,con,este,producto,
quality,phone,phone,knowledge,xz3,screen,side,sude,lcd,screen,speaker,phone,phone,bezel,place,grip,movie,iphone,fingerprint,sensor,hand,problem,camera,fingerprint,sensor,phone,phone,
sim,slot,sim,memory,
item,
,
phone,bit,iphone,
sony,
phone,super,operation,quality,sea,feel,offering,product,japan..,
seller,attention,appreciate,help,package,time,service,support,seller,detail,cellphone,resolution,screen,battery,life,state,country,phone,
quality,excellent,hand,screen,camera,sound,bit,phone,super,phone,update,camera,find,image,quality,premium,color,image,love,phone,
awesome,
battery,life,phone,day,charge—and,charge,phone,battery,time,time,phone,t,camera,picture,photo,detail,samsung,apple,iphone,fact,sony,camera,sensor,crapware,phone,amazon,apps,facebook,amazon,service,storage,space,phone,option,browser,list,crapware,ve,amazon,shopping,amazon,avg,protection,facebook,facebook,installer,facebook,app,manager,facebook,service,lounge,video,commander,phone,
phone,fps,fhd,slowmo,camera,month,phone,dollar,battery,screen,color,accuracy,sp845,power,downside,accuracy,speaker,bass,hope,sony,accuracy,software,phone,time,
sony,sense,style,fuckly,line,fingerprint,sensor,samsung,brand,hate,rape,thing,sony,fingerprint,sensor,phone,screen,fast,camera,battery,mile,model,feel,hold,phone,week,day,
,
phone,month,wife,camera,feature,smartphone,point,device,market,scene,iphone,s9+,sony,resolution,color,condition,beat,apple,samsung,max,brightness,display,contrast,level,color,fidelity,color,opinion,side,thicker,competitor,quality,phone,feel,location,finger,print,reader,problem,work,flagship,phone,decision,choose,detail,sony,samsung,phone,decision,camera,sony,phone,software,phone,
recibí,este,producto,e,quedé,sorprendido,con,la,calidad,del,mismo,funciona,perfectamente,cricket,wireless,la,calidad,se,siente,por,donde,quiera,se,toque,se,mire,super,rapidísimo,sin,lentitud,lagueos,estoy,muy,contento,por,ver,este,teléfono,lo,recomiendo,
phone,ram,camera,software,work,
